CCSDS_OMM_VERS = 2.0
CREATION_DATE  = 
ORIGINATOR     = 

OBJECT_NAME    = XRISM
OBJECT_ID      = 2023-137A
CENTER_NAME    = EARTH
REF_FRAME      = TEME
TIME_SYSTEM    = UTC
MEAN_ELEMENT_THEORY = SGP/SGP4

EPOCH          = 2026-03-07T23:45:08.451360
MEAN_MOTION    = 15.11479413
ECCENTRICITY   = .0008059
INCLINATION    = 31.0024
RA_OF_ASC_NODE = 294.6596
ARG_OF_PERICENTER = 20.8892
MEAN_ANOMALY   = 339.2074

EPHEMERIS_TYPE = 0
CLASSIFICATION_TYPE = U
NORAD_CAT_ID   = 57800
ELEMENT_SET_NO = 999
REV_AT_EPOCH   = 13753
BSTAR          = .48598E-3
MEAN_MOTION_DOT = .8535E-4
MEAN_MOTION_DDOT = 0

CCSDS_OMM_VERS = 2.0
CREATION_DATE  = 
ORIGINATOR     = 

OBJECT_NAME    = ACS3
OBJECT_ID      = 2024-077B
CENTER_NAME    = EARTH
REF_FRAME      = TEME
TIME_SYSTEM    = UTC
MEAN_ELEMENT_THEORY = SGP/SGP4

EPOCH          = 2026-03-07T18:28:34.417920
MEAN_MOTION    = 13.89493147
ECCENTRICITY   = .00584375
INCLINATION    = 97.2084
RA_OF_ASC_NODE = 8.3143
ARG_OF_PERICENTER = 81.6916
MEAN_ANOMALY   = 279.0868

EPHEMERIS_TYPE = 0
CLASSIFICATION_TYPE = U
NORAD_CAT_ID   = 59588
ELEMENT_SET_NO = 999
REV_AT_EPOCH   = 9393
BSTAR          = .18135097E-1
MEAN_MOTION_DOT = .22499E-3
MEAN_MOTION_DDOT = 0

CCSDS_OMM_VERS = 2.0
CREATION_DATE  = 
ORIGINATOR     = 

OBJECT_NAME    = SZ-21 MODULE
OBJECT_ID      = 2025-246C
CENTER_NAME    = EARTH
REF_FRAME      = TEME
TIME_SYSTEM    = UTC
MEAN_ELEMENT_THEORY = SGP/SGP4

EPOCH          = 2026-03-07T11:06:32.685984
MEAN_MOTION    = 15.68341086
ECCENTRICITY   = .00014291
INCLINATION    = 41.4737
RA_OF_ASC_NODE = 217.0662
ARG_OF_PERICENTER = 294.3949
MEAN_ANOMALY   = 65.6744

EPHEMERIS_TYPE = 0
CLASSIFICATION_TYPE = U
NORAD_CAT_ID   = 66515
ELEMENT_SET_NO = 999
REV_AT_EPOCH   = 1772
BSTAR          = .43322838E-3
MEAN_MOTION_DOT = .50102E-3
MEAN_MOTION_DDOT = 0

