XRISM                   
1 57800U 23137A   26066.98968115  .00008535  00000+0  48598-3 0  9990
2 57800  31.0024 294.6596 0008059  20.8892 339.2074 15.11479413137537
ACS3                    
1 59588U 24077B   26066.76984280  .00022499  00000+0  18135-1 0  9993
2 59588  97.2084   8.3143 0058437  81.6916 279.0868 13.89493147 93937
SZ-21 MODULE            
1 66515U 25246C   26066.46287831  .00050102  00000+0  43323-3 0  9996
2 66515  41.4737 217.0662 0001429 294.3949  65.6744 15.68341086 17722
